{"type": "FeatureCollection", "features": [ {"type": "Feature", "properties": {"norad_id": 54234, "name": "NOAA 21 (JPSS-2)", "group": "weather", "lat": -69.38079047458208, "lon": 92.37904893480142, "alt_km": 834.7384639732791, "timestamp": "2025-12-26T09:30:53.270321+00:00", "meta": {"OBJECT_NAME": "NOAA 21 (JPSS-2)", "OBJECT_ID": "2022-150A", "EPOCH": "2025-12-26T03:15:35.464032", "MEAN_MOTION": 14.19527747, "ECCENTRICITY": 0.0001594, "INCLINATION": 98.7479, "RA_OF_ASC_NODE": 296.278, "ARG_OF_PERICENTER": 10.219, "MEAN_ANOMALY": 349.9018, "EPHEMERIS_TYPE": 0, "CLASSIFICATION_TYPE": "U", "NORAD_CAT_ID": 54234, "ELEMENT_SET_NO": 999, "REV_AT_EPOCH": 16199, "BSTAR": 6.753e-05, "MEAN_MOTION_DOT": 9.8e-07, "MEAN_MOTION_DDOT": 0}, "tle": {"line1": "1 54234U 22150A   25360.13582713  .00000098  00000+0  67530-4 0  9995", "line2": "2 54234  98.7479 296.2780 0001594  10.2190 349.9018 14.19527747161997"}}, "geometry": {"type": "Point", "coordinates": [92.37904893480142, -69.38079047458208]}}, {"type": "Feature", "properties": {"norad_id": 54743, "name": "METEOSAT-12 (MTG-I1)", "group": "weather", "lat": -0.3821237351406659, "lon": -122.4790845916033, "alt_km": 35780.19867279197, "timestamp": "2025-12-26T09:30:53.270332+00:00", "meta": {"OBJECT_NAME": "METEOSAT-12 (MTG-I1)", "OBJECT_ID": "2022-170C", "EPOCH": "2025-12-25T22:09:38.747232", "MEAN_MOTION": 1.00270908, "ECCENTRICITY": 0.0001678, "INCLINATION": 0.7005, "RA_OF_ASC_NODE": 25.8079, "ARG_OF_PERICENTER": 241.4995, "MEAN_ANOMALY": 159.4565, "EPHEMERIS_TYPE": 0, "CLASSIFICATION_TYPE": "U", "NORAD_CAT_ID": 54743, "ELEMENT_SET_NO": 999, "REV_AT_EPOCH": 1124, "BSTAR": 0, "MEAN_MOTION_DOT": 1.4e-07, "MEAN_MOTION_DDOT": 0}, "tle": {"line1": "1 54743U 22170C   25359.92336513  .00000014  00000+0  00000+0 0  9994", "line2": "2 54743   0.7005  25.8079 0001678 241.4995 159.4565  1.00270908 11244"}}, "geometry": {"type": "Point", "coordinates": [-122.4790845916033, -0.3821237351406659]}}, {"type": "Feature", "properties": {"norad_id": 55973, "name": "TIANMU-1 03", "group": "weather", "lat": 24.723053640544734, "lon": 159.94987708611112, "alt_km": 439.09717391724007, "timestamp": "2025-12-26T09:30:53.270344+00:00", "meta": {"OBJECT_NAME": "TIANMU-1 03", "OBJECT_ID": "2023-039A", "EPOCH": "2025-12-26T04:43:57.383616", "MEAN_MOTION": 15.41318587, "ECCENTRICITY": 0.0003709, "INCLINATION": 97.5115, "RA_OF_ASC_NODE": 163.2281, "ARG_OF_PERICENTER": 21.5785, "MEAN_ANOMALY": 338.5617, "EPHEMERIS_TYPE": 0, "CLASSIFICATION_TYPE": "U", "NORAD_CAT_ID": 55973, "ELEMENT_SET_NO": 999, "REV_AT_EPOCH": 15413, "BSTAR": 0.0003944, "MEAN_MOTION_DOT": 0.00016365, "MEAN_MOTION_DDOT": 0}, "tle": {"line1": "1 55973U 23039A   25360.19719194  .00016365  00000+0  39440-3 0  9996", "line2": "2 55973  97.5115 163.2281 0003709  21.5785 338.5617 15.41318587154139"}}, "geometry": {"type": "Point", "coordinates": [159.94987708611112, 24.723053640544734]}}, {"type": "Feature", "properties": {"norad_id": 55974, "name": "TIANMU-1 04", "group": "weather", "lat": 23.90387228088258, "lon": -14.031720117070638, "alt_km": 443.05283903439795, "timestamp": "2025-12-26T09:30:53.270354+00:00", "meta": {"OBJECT_NAME": "TIANMU-1 04", "OBJECT_ID": "2023-039B", "EPOCH": "2025-12-26T04:10:05.469888", "MEAN_MOTION": 15.41662005, "ECCENTRICITY": 0.0004309, "INCLINATION": 97.5047, "RA_OF_ASC_NODE": 162.3896, "ARG_OF_PERICENTER": 14.6585, "MEAN_ANOMALY": 345.4786, "EPHEMERIS_TYPE": 0, "CLASSIFICATION_TYPE": "U", "NORAD_CAT_ID": 55974, "ELEMENT_SET_NO": 999, "REV_AT_EPOCH": 15413, "BSTAR": 0.0003851, "MEAN_MOTION_DOT": 0.00016161, "MEAN_MOTION_DDOT": 0}, "tle": {"line1": "1 55974U 23039B   25360.17367442  .00016161  00000+0  38510-3 0  9991", "line2": "2 55974  97.5047 162.3896 0004309  14.6585 345.4786 15.41662005154135"}}, "geometry": {"type": "Point", "coordinates": [-14.031720117070638, 23.90387228088258]}}, {"type": "Feature", "properties": {"norad_id": 55975, "name": "TIANMU-1 05", "group": "weather", "lat": 10.93040193081298, "lon": -15.42873203111306, "alt_km": 445.55377151635275, "timestamp": "2025-12-26T09:30:53.270405+00:00", "meta": {"OBJECT_NAME": "TIANMU-1 05", "OBJECT_ID": "2023-039C", "EPOCH": "2025-12-26T04:06:37.055808", "MEAN_MOTION": 15.41274539, "ECCENTRICITY": 0.0003875, "INCLINATION": 97.5094, "RA_OF_ASC_NODE": 162.88, "ARG_OF_PERICENTER": 41.1493, "MEAN_ANOMALY": 319.0045, "EPHEMERIS_TYPE": 0, "CLASSIFICATION_TYPE": "U", "NORAD_CAT_ID": 55975, "ELEMENT_SET_NO": 999, "REV_AT_EPOCH": 15411, "BSTAR": 0.00038429, "MEAN_MOTION_DOT": 0.00015919, "MEAN_MOTION_DDOT": 0}, "tle": {"line1": "1 55975U 23039C   25360.17126222  .00015919  00000+0  38429-3 0  9990", "line2": "2 55975  97.5094 162.8800 0003875  41.1493 319.0045 15.41274539154112"}}, "geometry": {"type": "Point", "coordinates": [-15.42873203111306, 10.93040193081298]}}, {"type": "Feature", "properties": {"norad_id": 55976, "name": "TIANMU-1 06", "group": "weather", "lat": 33.31257802817352, "lon": -11.438066052738874, "alt_km": 440.12547865042507, "timestamp": "2025-12-26T09:30:53.270418+00:00", "meta": {"OBJECT_NAME": "TIANMU-1 06", "OBJECT_ID": "2023-039D", "EPOCH": "2025-12-26T04:12:34.595424", "MEAN_MOTION": 15.41713122, "ECCENTRICITY": 0.0004118, "INCLINATION": 97.5104, "RA_OF_ASC_NODE": 163.3605, "ARG_OF_PERICENTER": 34.9428, "MEAN_ANOMALY": 325.2088, "EPHEMERIS_TYPE": 0, "CLASSIFICATION_TYPE": "U", "NORAD_CAT_ID": 55976, "ELEMENT_SET_NO": 999, "REV_AT_EPOCH": 15413, "BSTAR": 0.00038387, "MEAN_MOTION_DOT": 0.00016136, "MEAN_MOTION_DDOT": 0}, "tle": {"line1": "1 55976U 23039D   25360.17540041  .00016136  00000+0  38387-3 0  9995", "line2": "2 55976  97.5104 163.3605 0004118  34.9428 325.2088 15.41713122154137"}}, "geometry": {"type": "Point", "coordinates": [-11.438066052738874, 33.31257802817352]}}, {"type": "Feature", "properties": {"norad_id": 56232, "name": "FENGYUN 3G", "group": "weather", "lat": -22.427338194568044, "lon": -2.739569278919068, "alt_km": 413.20298845808884, "timestamp": "2025-12-26T09:30:53.270429+00:00", "meta": {"OBJECT_NAME": "FENGYUN 3G", "OBJECT_ID": "2023-055A", "EPOCH": "2025-12-26T00:53:20.198112", "MEAN_MOTION": 15.52108299, "ECCENTRICITY": 0.0003952, "INCLINATION": 49.9929, "RA_OF_ASC_NODE": 158.829, "ARG_OF_PERICENTER": 293.0279, "MEAN_ANOMALY": 67.0271, "EPHEMERIS_TYPE": 0, "CLASSIFICATION_TYPE": "U", "NORAD_CAT_ID": 56232, "ELEMENT_SET_NO": 999, "REV_AT_EPOCH": 15309, "BSTAR": 0.00048782, "MEAN_MOTION_DOT": 0.00029713, "MEAN_MOTION_DDOT": 0}, "tle": {"line1": "1 56232U 23055A   25360.03703933  .00029713  00000+0  48782-3 0  9990", "line2": "2 56232  49.9929 158.8290 0003952 293.0279  67.0271 15.52108299153099"}}, "geometry": {"type": "Point", "coordinates": [-2.739569278919068, -22.427338194568044]}}, {"type": "Feature", "properties": {"norad_id": 57166, "name": "METEOR-M2 3", "group": "weather", "lat": 18.366587834790405, "lon": 50.803793942726486, "alt_km": 810.6331550440482, "timestamp": "2025-12-26T09:30:53.270442+00:00", "meta": {"OBJECT_NAME": "METEOR-M2 3", "OBJECT_ID": "2023-091A", "EPOCH": "2025-12-26T04:22:07.964832", "MEAN_MOTION": 14.24027639, "ECCENTRICITY": 0.0003203, "INCLINATION": 98.636, "RA_OF_ASC_NODE": 53.4854, "ARG_OF_PERICENTER": 326.4837, "MEAN_ANOMALY": 33.6139, "EPHEMERIS_TYPE": 0, "CLASSIFICATION_TYPE": "U", "NORAD_CAT_ID": 57166, "ELEMENT_SET_NO": 999, "REV_AT_EPOCH": 12989, "BSTAR": 1.7923e-05, "MEAN_MOTION_DOT": -2e-08, "MEAN_MOTION_DDOT": 0}, "tle": {"line1": "1 57166U 23091A   25360.18203663 -.00000002  00000+0  17923-4 0  9993", "line2": "2 57166  98.6360  53.4854 0003203 326.4837  33.6139 14.24027639129891"}}, "geometry": {"type": "Point", "coordinates": [50.803793942726486, 18.366587834790405]}}, {"type": "Feature", "properties": {"norad_id": 57399, "name": "TIANMU-1 07", "group": "weather", "lat": -80.04525866433347, "lon": 96.74204099415972, "alt_km": 490.50378171659304, "timestamp": "2025-12-26T09:30:53.270477+00:00", "meta": {"OBJECT_NAME": "TIANMU-1 07", "OBJECT_ID": "2023-101A", "EPOCH": "2025-12-26T03:35:33.885600", "MEAN_MOTION": 15.28260936, "ECCENTRICITY": 0.0004934, "INCLINATION": 97.2856, "RA_OF_ASC_NODE": 49.7035, "ARG_OF_PERICENTER": 46.847, "MEAN_ANOMALY": 313.3182, "EPHEMERIS_TYPE": 0, "CLASSIFICATION_TYPE": "U", "NORAD_CAT_ID": 57399, "ELEMENT_SET_NO": 999, "REV_AT_EPOCH": 13520, "BSTAR": 0.00027471, "MEAN_MOTION_DOT": 7.494e-05, "MEAN_MOTION_DDOT": 0}, "tle": {"line1": "1 57399U 23101A   25360.14969775  .00007494  00000+0  27471-3 0  9991", "line2": "2 57399  97.2856  49.7035 0004934  46.8470 313.3182 15.28260936135203"}}, "geometry": {"type": "Point", "coordinates": [96.74204099415972, -80.04525866433347]}}, {"type": "Feature", "properties": {"norad_id": 57400, "name": "TIANMU-1 08", "group": "weather", "lat": 79.32789937764814, "lon": -87.50982237689146, "alt_km": 470.87456274485976, "timestamp": "2025-12-26T09:30:53.270496+00:00", "meta": {"OBJECT_NAME": "TIANMU-1 08", "OBJECT_ID": "2023-101B", "EPOCH": "2025-12-26T04:22:28.617888", "MEAN_MOTION": 15.28243151, "ECCENTRICITY": 0.0006871, "INCLINATION": 97.2845, "RA_OF_ASC_NODE": 49.531, "ARG_OF_PERICENTER": 45.5403, "MEAN_ANOMALY": 314.6398, "EPHEMERIS_TYPE": 0, "CLASSIFICATION_TYPE": "U", "NORAD_CAT_ID": 57400, "ELEMENT_SET_NO": 999, "REV_AT_EPOCH": 13520, "BSTAR": 0.00026467, "MEAN_MOTION_DOT": 7.215e-05, "MEAN_MOTION_DDOT": 0}, "tle": {"line1": "1 57400U 23101B   25360.18227567  .00007215  00000+0  26467-3 0  9999", "line2": "2 57400  97.2845  49.5310 0006871  45.5403 314.6398 15.28243151135205"}}, "geometry": {"type": "Point", "coordinates": [-87.50982237689146, 79.32789937764814]}}]}